CCSDS_OMM_VERS = 2.0
CREATION_DATE  = 
ORIGINATOR     = 

OBJECT_NAME    = STARLINK-35729
OBJECT_ID      = 2025-280S
CENTER_NAME    = EARTH
REF_FRAME      = TEME
TIME_SYSTEM    = UTC
MEAN_ELEMENT_THEORY = SGP/SGP4

EPOCH          = 2025-12-12T04:00:01.998720
MEAN_MOTION    = 15.82473049
ECCENTRICITY   = .0003852
INCLINATION    = 69.9915
RA_OF_ASC_NODE = 200.4412
ARG_OF_PERICENTER = 277.3257
MEAN_ANOMALY   = 97.5593

EPHEMERIS_TYPE = 0
CLASSIFICATION_TYPE = U
NORAD_CAT_ID   = 66837
ELEMENT_SET_NO = 999
REV_AT_EPOCH   = 280
BSTAR          = -.99473E-2
MEAN_MOTION_DOT = -.1826494E-1
MEAN_MOTION_DDOT = 0

CCSDS_OMM_VERS = 2.0
CREATION_DATE  = 
ORIGINATOR     = 

OBJECT_NAME    = STARLINK-35886
OBJECT_ID      = 2025-280T
CENTER_NAME    = EARTH
REF_FRAME      = TEME
TIME_SYSTEM    = UTC
MEAN_ELEMENT_THEORY = SGP/SGP4

EPOCH          = 2025-12-12T04:00:01.998720
MEAN_MOTION    = 15.82506307
ECCENTRICITY   = .0003844
INCLINATION    = 69.9913
RA_OF_ASC_NODE = 200.4366
ARG_OF_PERICENTER = 277.1244
MEAN_ANOMALY   = 101.5536

EPHEMERIS_TYPE = 0
CLASSIFICATION_TYPE = U
NORAD_CAT_ID   = 66838
ELEMENT_SET_NO = 999
REV_AT_EPOCH   = 280
BSTAR          = -.99317E-2
MEAN_MOTION_DOT = -.1826484E-1
MEAN_MOTION_DDOT = 0

CCSDS_OMM_VERS = 2.0
CREATION_DATE  = 
ORIGINATOR     = 

OBJECT_NAME    = STARLINK-35717
OBJECT_ID      = 2025-280U
CENTER_NAME    = EARTH
REF_FRAME      = TEME
TIME_SYSTEM    = UTC
MEAN_ELEMENT_THEORY = SGP/SGP4

EPOCH          = 2025-12-12T04:00:01.998720
MEAN_MOTION    = 15.82492509
ECCENTRICITY   = .0003961
INCLINATION    = 69.9914
RA_OF_ASC_NODE = 200.4390
ARG_OF_PERICENTER = 274.3332
MEAN_ANOMALY   = 102.3690

EPHEMERIS_TYPE = 0
CLASSIFICATION_TYPE = U
NORAD_CAT_ID   = 66839
ELEMENT_SET_NO = 999
REV_AT_EPOCH   = 280
BSTAR          = -.99119E-2
MEAN_MOTION_DOT = -.1822369E-1
MEAN_MOTION_DDOT = 0

CCSDS_OMM_VERS = 2.0
CREATION_DATE  = 
ORIGINATOR     = 

OBJECT_NAME    = STARLINK-35837
OBJECT_ID      = 2025-280V
CENTER_NAME    = EARTH
REF_FRAME      = TEME
TIME_SYSTEM    = UTC
MEAN_ELEMENT_THEORY = SGP/SGP4

EPOCH          = 2025-12-12T04:00:01.998720
MEAN_MOTION    = 15.82523773
ECCENTRICITY   = .000387
INCLINATION    = 69.9916
RA_OF_ASC_NODE = 200.4345
ARG_OF_PERICENTER = 276.5570
MEAN_ANOMALY   = 104.0503

EPHEMERIS_TYPE = 0
CLASSIFICATION_TYPE = U
NORAD_CAT_ID   = 66840
ELEMENT_SET_NO = 999
REV_AT_EPOCH   = 280
BSTAR          = -.99594E-2
MEAN_MOTION_DOT = -.1832313E-1
MEAN_MOTION_DDOT = 0

CCSDS_OMM_VERS = 2.0
CREATION_DATE  = 
ORIGINATOR     = 

OBJECT_NAME    = STARLINK-35715
OBJECT_ID      = 2025-280W
CENTER_NAME    = EARTH
REF_FRAME      = TEME
TIME_SYSTEM    = UTC
MEAN_ELEMENT_THEORY = SGP/SGP4

EPOCH          = 2025-12-12T04:00:01.998720
MEAN_MOTION    = 15.82537176
ECCENTRICITY   = .0003947
INCLINATION    = 69.9914
RA_OF_ASC_NODE = 200.4319
ARG_OF_PERICENTER = 275.3088
MEAN_ANOMALY   = 107.2820

EPHEMERIS_TYPE = 0
CLASSIFICATION_TYPE = U
NORAD_CAT_ID   = 66841
ELEMENT_SET_NO = 999
REV_AT_EPOCH   = 280
BSTAR          = -.9984E-2
MEAN_MOTION_DOT = -.1837408E-1
MEAN_MOTION_DDOT = 0

CCSDS_OMM_VERS = 2.0
CREATION_DATE  = 
ORIGINATOR     = 

OBJECT_NAME    = STARLINK-35769
OBJECT_ID      = 2025-280X
CENTER_NAME    = EARTH
REF_FRAME      = TEME
TIME_SYSTEM    = UTC
MEAN_ELEMENT_THEORY = SGP/SGP4

EPOCH          = 2025-12-12T04:00:01.998720
MEAN_MOTION    = 15.82563163
ECCENTRICITY   = .0004061
INCLINATION    = 69.9915
RA_OF_ASC_NODE = 200.4300
ARG_OF_PERICENTER = 275.6945
MEAN_ANOMALY   = 108.7242

EPHEMERIS_TYPE = 0
CLASSIFICATION_TYPE = U
NORAD_CAT_ID   = 66842
ELEMENT_SET_NO = 999
REV_AT_EPOCH   = 280
BSTAR          = -.10008E-1
MEAN_MOTION_DOT = -.1843359E-1
MEAN_MOTION_DDOT = 0

CCSDS_OMM_VERS = 2.0
CREATION_DATE  = 
ORIGINATOR     = 

OBJECT_NAME    = STARLINK-35997
OBJECT_ID      = 2025-280Y
CENTER_NAME    = EARTH
REF_FRAME      = TEME
TIME_SYSTEM    = UTC
MEAN_ELEMENT_THEORY = SGP/SGP4

EPOCH          = 2025-12-12T04:00:01.998720
MEAN_MOTION    = 15.82595440
ECCENTRICITY   = .0003931
INCLINATION    = 69.9910
RA_OF_ASC_NODE = 200.4250
ARG_OF_PERICENTER = 278.1521
MEAN_ANOMALY   = 110.1492

EPHEMERIS_TYPE = 0
CLASSIFICATION_TYPE = U
NORAD_CAT_ID   = 66843
ELEMENT_SET_NO = 999
REV_AT_EPOCH   = 280
BSTAR          = -.1004E-1
MEAN_MOTION_DOT = -.1850938E-1
MEAN_MOTION_DDOT = 0

CCSDS_OMM_VERS = 2.0
CREATION_DATE  = 
ORIGINATOR     = 

OBJECT_NAME    = STARLINK-36073
OBJECT_ID      = 2025-280Z
CENTER_NAME    = EARTH
REF_FRAME      = TEME
TIME_SYSTEM    = UTC
MEAN_ELEMENT_THEORY = SGP/SGP4

EPOCH          = 2025-12-12T04:00:01.998720
MEAN_MOTION    = 15.82572250
ECCENTRICITY   = .0003952
INCLINATION    = 69.9912
RA_OF_ASC_NODE = 200.4271
ARG_OF_PERICENTER = 278.8382
MEAN_ANOMALY   = 107.6715

EPHEMERIS_TYPE = 0
CLASSIFICATION_TYPE = U
NORAD_CAT_ID   = 66844
ELEMENT_SET_NO = 999
REV_AT_EPOCH   = 280
BSTAR          = -.10052E-1
MEAN_MOTION_DOT = -.1851119E-1
MEAN_MOTION_DDOT = 0

CCSDS_OMM_VERS = 2.0
CREATION_DATE  = 
ORIGINATOR     = 

OBJECT_NAME    = STARLINK-36068
OBJECT_ID      = 2025-280AA
CENTER_NAME    = EARTH
REF_FRAME      = TEME
TIME_SYSTEM    = UTC
MEAN_ELEMENT_THEORY = SGP/SGP4

EPOCH          = 2025-12-12T04:00:01.998720
MEAN_MOTION    = 15.82662279
ECCENTRICITY   = .0003894
INCLINATION    = 69.9909
RA_OF_ASC_NODE = 200.4184
ARG_OF_PERICENTER = 273.8446
MEAN_ANOMALY   = 120.1118

EPHEMERIS_TYPE = 0
CLASSIFICATION_TYPE = U
NORAD_CAT_ID   = 66845
ELEMENT_SET_NO = 999
REV_AT_EPOCH   = 280
BSTAR          = -.10125E-1
MEAN_MOTION_DOT = -.1869789E-1
MEAN_MOTION_DDOT = 0

CCSDS_OMM_VERS = 2.0
CREATION_DATE  = 
ORIGINATOR     = 

OBJECT_NAME    = STARLINK-36055
OBJECT_ID      = 2025-280AB
CENTER_NAME    = EARTH
REF_FRAME      = TEME
TIME_SYSTEM    = UTC
MEAN_ELEMENT_THEORY = SGP/SGP4

EPOCH          = 2025-12-12T04:00:01.998720
MEAN_MOTION    = 15.82601843
ECCENTRICITY   = .0004039
INCLINATION    = 69.9910
RA_OF_ASC_NODE = 200.4223
ARG_OF_PERICENTER = 275.2123
MEAN_ANOMALY   = 115.2105

EPHEMERIS_TYPE = 0
CLASSIFICATION_TYPE = U
NORAD_CAT_ID   = 66846
ELEMENT_SET_NO = 999
REV_AT_EPOCH   = 280
BSTAR          = -.10104E-1
MEAN_MOTION_DOT = -.1861944E-1
MEAN_MOTION_DDOT = 0

CCSDS_OMM_VERS = 2.0
CREATION_DATE  = 
ORIGINATOR     = 

OBJECT_NAME    = STARLINK-36061
OBJECT_ID      = 2025-280AC
CENTER_NAME    = EARTH
REF_FRAME      = TEME
TIME_SYSTEM    = UTC
MEAN_ELEMENT_THEORY = SGP/SGP4

EPOCH          = 2025-12-12T04:00:01.998720
MEAN_MOTION    = 15.82632362
ECCENTRICITY   = .000399
INCLINATION    = 69.9910
RA_OF_ASC_NODE = 200.4207
ARG_OF_PERICENTER = 274.7431
MEAN_ANOMALY   = 117.4079

EPHEMERIS_TYPE = 0
CLASSIFICATION_TYPE = U
NORAD_CAT_ID   = 66847
ELEMENT_SET_NO = 999
REV_AT_EPOCH   = 275
BSTAR          = -.1009E-1
MEAN_MOTION_DOT = -.1861964E-1
MEAN_MOTION_DDOT = 0

CCSDS_OMM_VERS = 2.0
CREATION_DATE  = 
ORIGINATOR     = 

OBJECT_NAME    = STARLINK-36091
OBJECT_ID      = 2025-281A
CENTER_NAME    = EARTH
REF_FRAME      = TEME
TIME_SYSTEM    = UTC
MEAN_ELEMENT_THEORY = SGP/SGP4

EPOCH          = 2025-12-12T04:00:01.998720
MEAN_MOTION    = 15.92066505
ECCENTRICITY   = .0001721
INCLINATION    = 43.0014
RA_OF_ASC_NODE = 125.9565
ARG_OF_PERICENTER = 274.7982
MEAN_ANOMALY   = 187.0238

EPHEMERIS_TYPE = 0
CLASSIFICATION_TYPE = U
NORAD_CAT_ID   = 66848
ELEMENT_SET_NO = 999
REV_AT_EPOCH   = 131
BSTAR          = -.33867E-2
MEAN_MOTION_DOT = -.1168525E-1
MEAN_MOTION_DDOT = .40192E-3

