STARLINK-35729          
1 66837U 25280S   25346.16668980 -.01826494  00000+0 -99473-2 0  9990
2 66837  69.9915 200.4412 0003852 277.3257  97.5593 15.82473049  2806
STARLINK-35886          
1 66838U 25280T   25346.16668980 -.01826484  00000+0 -99317-2 0  9997
2 66838  69.9913 200.4366 0003844 277.1244 101.5536 15.82506307  2805
STARLINK-35717          
1 66839U 25280U   25346.16668980 -.01822369  00000+0 -99119-2 0  9996
2 66839  69.9914 200.4390 0003961 274.3332 102.3690 15.82492509  2809
STARLINK-35837          
1 66840U 25280V   25346.16668980 -.01832313  00000+0 -99594-2 0  9995
2 66840  69.9916 200.4345 0003870 276.5570 104.0503 15.82523773  2800
STARLINK-35715          
1 66841U 25280W   25346.16668980 -.01837408  00000+0 -99840-2 0  9990
2 66841  69.9914 200.4319 0003947 275.3088 107.2820 15.82537176  2805
STARLINK-35769          
1 66842U 25280X   25346.16668980 -.01843359  00000+0 -10008-1 0  9991
2 66842  69.9915 200.4300 0004061 275.6945 108.7242 15.82563163  2809
STARLINK-35997          
1 66843U 25280Y   25346.16668980 -.01850938  00000+0 -10040-1 0  9999
2 66843  69.9910 200.4250 0003931 278.1521 110.1492 15.82595440  2809
STARLINK-36073          
1 66844U 25280Z   25346.16668980 -.01851119  00000+0 -10052-1 0  9995
2 66844  69.9912 200.4271 0003952 278.8382 107.6715 15.82572250  2803
STARLINK-36068          
1 66845U 25280AA  25346.16668980 -.01869789  00000+0 -10125-1 0  9999
2 66845  69.9909 200.4184 0003894 273.8446 120.1118 15.82662279  2802
STARLINK-36055          
1 66846U 25280AB  25346.16668980 -.01861944  00000+0 -10104-1 0  9992
2 66846  69.9910 200.4223 0004039 275.2123 115.2105 15.82601843  2800
STARLINK-36061          
1 66847U 25280AC  25346.16668980 -.01861964  00000+0 -10090-1 0  9999
2 66847  69.9910 200.4207 0003990 274.7431 117.4079 15.82632362  2752
STARLINK-36091          
1 66848U 25281A   25346.16668980 -.01168525  40192-3 -33867-2 0  9992
2 66848  43.0014 125.9565 0001721 274.7982 187.0238 15.92066505  1312
